start=new Date('2023-05-07T00:00:00.000Z').valueOf();
sats=[{"APOAPSIS":"548.027","RCS_SIZE":"LARGE","RA_OF_ASC_NODE":"349.7344","DECAY_DATE":null,"BSTAR":"0.00144990000000","LAUNCH_DATE":"2021-01-20","SEMIMAJOR_AXIS":"6925.381","OBJECT_ID":"2021-005AW","MEAN_ANOMALY":"260.2403","EPOCH":"2023-05-06T00:34:25.028256","OBJECT_NAME":"STARLINK-2114","MEAN_MOTION":"15.06389301","MEAN_ELEMENT_THEORY":"SGP4","OBJECT_TYPE":"PAYLOAD","EPHEMERIS_TYPE":"0","CLASSIFICATION_TYPE":"U","SITE":"AFETR","PERIOD":"95.593","COUNTRY_CODE":"US","GP_ID":"231349506","ELEMENT_SET_NO":"999","INCLINATION":"53.0545","NORAD_CAT_ID":"47393","ECCENTRICITY":"0.00011270","MEAN_MOTION_DOT":"0.00021374","MEAN_MOTION_DDOT":"0.0000000000000","FILE":"3902298","TIME_SYSTEM":"UTC","TLE_LINE1":"1 47393U 21005AW  23126.02390079  .00021374  00000-0  14499-2 0  9994","REV_AT_EPOCH":"12725","REF_FRAME":"TEME","TLE_LINE2":"2 47393  53.0545 349.7344 0001127  99.8713 260.2403 15.06389301127252","CENTER_NAME":"EARTH","ARG_OF_PERICENTER":"99.8713","PERIAPSIS":"546.466"},{"PERIOD":"95.594","SITE":"AFETR","OBJECT_NAME":"STARLINK-2115","MEAN_ELEMENT_THEORY":"SGP4","MEAN_MOTION":"15.06363869","EPOCH":"2023-05-06T02:07:16.581504","CLASSIFICATION_TYPE":"U","EPHEMERIS_TYPE":"0","OBJECT_TYPE":"PAYLOAD","SEMIMAJOR_AXIS":"6925.459","LAUNCH_DATE":"2021-01-20","BSTAR":"0.00220620000000","MEAN_ANOMALY":"281.8013","OBJECT_ID":"2021-005AX","DECAY_DATE":null,"RCS_SIZE":"LARGE","RA_OF_ASC_NODE":"9.2431","APOAPSIS":"547.802","CENTER_NAME":"EARTH","TLE_LINE2":"2 47394  53.0556   9.2431 0000690  78.3053 281.8013 15.06363869126990","ARG_OF_PERICENTER":"78.3053","PERIAPSIS":"546.846","FILE":"3902298","MEAN_MOTION_DDOT":"0.0000000000000","REF_FRAME":"TEME","REV_AT_EPOCH":"12699","TLE_LINE1":"1 47394U 21005AX  23126.08838636  .00032701  00000-0  22062-2 0  9998","TIME_SYSTEM":"UTC","MEAN_MOTION_DOT":"0.00032701","NORAD_CAT_ID":"47394","ECCENTRICITY":"0.00006900","INCLINATION":"53.0556","GP_ID":"231347763","COUNTRY_CODE":"US","ELEMENT_SET_NO":"999"},{"GP_ID":"231348013","COUNTRY_CODE":"US","ELEMENT_SET_NO":"999","MEAN_MOTION_DOT":"0.00021778","ECCENTRICITY":"0.00010320","NORAD_CAT_ID":"47395","INCLINATION":"53.0538","FILE":"3902298","MEAN_MOTION_DDOT":"0.0000000000000","REF_FRAME":"TEME","REV_AT_EPOCH":"12704","TLE_LINE1":"1 47395U 21005AY  23125.97640693  .00021778  00000-0  14768-2 0  9996","TIME_SYSTEM":"UTC","TLE_LINE2":"2 47395  53.0538   4.5826 0001032 102.2384 257.8721 15.06389648127041","CENTER_NAME":"EARTH","ARG_OF_PERICENTER":"102.2384","PERIAPSIS":"546.531","DECAY_DATE":null,"RCS_SIZE":"LARGE","RA_OF_ASC_NODE":"4.5826","APOAPSIS":"547.960","SEMIMAJOR_AXIS":"6925.380","LAUNCH_DATE":"2021-01-20","BSTAR":"0.00147680000000","MEAN_ANOMALY":"257.8721","OBJECT_ID":"2021-005AY","MEAN_MOTION":"15.06389648","MEAN_ELEMENT_THEORY":"SGP4","OBJECT_NAME":"STARLINK-2117","EPOCH":"2023-05-05T23:26:01.558752","CLASSIFICATION_TYPE":"U","EPHEMERIS_TYPE":"0","OBJECT_TYPE":"PAYLOAD","PERIOD":"95.593","SITE":"AFETR"},{"DECAY_DATE":null,"RA_OF_ASC_NODE":"13.1968","RCS_SIZE":"LARGE","APOAPSIS":"547.623","MEAN_ANOMALY":"243.3809","OBJECT_ID":"2021-005AZ","SEMIMAJOR_AXIS":"6925.332","LAUNCH_DATE":"2021-01-20","BSTAR":"0.00183080000000","CLASSIFICATION_TYPE":"U","EPHEMERIS_TYPE":"0","OBJECT_TYPE":"PAYLOAD","MEAN_ELEMENT_THEORY":"SGP4","OBJECT_NAME":"STARLINK-2118","MEAN_MOTION":"15.06405552","EPOCH":"2023-05-06T06:50:32.673696","SITE":"AFETR","PERIOD":"95.592","ELEMENT_SET_NO":"999","GP_ID":"231348764","COUNTRY_CODE":"US","MEAN_MOTION_DOT":"0.00027098","ECCENTRICITY":"0.00006160","NORAD_CAT_ID":"47396","INCLINATION":"53.0556","REF_FRAME":"TEME","REV_AT_EPOCH":"12695","TLE_LINE1":"1 47396U 21005AZ  23126.28510039  .00027098  00000-0  18308-2 0  9997","TIME_SYSTEM":"UTC","FILE":"3902298","MEAN_MOTION_DDOT":"0.0000000000000","ARG_OF_PERICENTER":"116.7243","PERIAPSIS":"546.770","CENTER_NAME":"EARTH","TLE_LINE2":"2 47396  53.0556  13.1968 0000616 116.7243 243.3809 15.06405552126955"},{"APOAPSIS":"548.047","RCS_SIZE":"LARGE","RA_OF_ASC_NODE":"44.1068","DECAY_DATE":null,"OBJECT_ID":"2021-005BA","MEAN_ANOMALY":"219.3068","BSTAR":"0.00142010000000","SEMIMAJOR_AXIS":"6925.391","LAUNCH_DATE":"2021-01-20","OBJECT_TYPE":"PAYLOAD","EPHEMERIS_TYPE":"0","CLASSIFICATION_TYPE":"U","EPOCH":"2023-05-06T01:59:56.046912","MEAN_ELEMENT_THEORY":"SGP4","OBJECT_NAME":"STARLINK-2119","MEAN_MOTION":"15.06386093","PERIOD":"95.593","SITE":"AFETR","ELEMENT_SET_NO":"999","COUNTRY_CODE":"US","GP_ID":"231349007","INCLINATION":"53.0551","ECCENTRICITY":"0.00011420","NORAD_CAT_ID":"47397","MEAN_MOTION_DOT":"0.00020926","TIME_SYSTEM":"UTC","TLE_LINE1":"1 47397U 21005BA  23126.08328758  .00020926  00000-0  14201-2 0  9992","REV_AT_EPOCH":"12650","REF_FRAME":"TEME","MEAN_MOTION_DDOT":"0.0000000000000","FILE":"3902298","ARG_OF_PERICENTER":"140.8004","PERIAPSIS":"546.465","CENTER_NAME":"EARTH","TLE_LINE2":"2 47397  53.0551  44.1068 0001142 140.8004 219.3068 15.06386093126503"},{"MEAN_MOTION_DDOT":"0.0000000000000","FILE":"3902298","TLE_LINE1":"1 47398U 21005BB  23126.05656653  .00022884  00000-0  15507-2 0  9993","TIME_SYSTEM":"UTC","REF_FRAME":"TEME","REV_AT_EPOCH":"12691","CENTER_NAME":"EARTH","TLE_LINE2":"2 47398  53.0548  14.2228 0001228 102.0992 258.0135 15.06387799126911","ARG_OF_PERICENTER":"102.0992","PERIAPSIS":"546.401","COUNTRY_CODE":"US","GP_ID":"231348264","ELEMENT_SET_NO":"999","NORAD_CAT_ID":"47398","ECCENTRICITY":"0.00012280","INCLINATION":"53.0548","MEAN_MOTION_DOT":"0.00022884","OBJECT_NAME":"STARLINK-2120","MEAN_ELEMENT_THEORY":"SGP4","MEAN_MOTION":"15.06387799","EPOCH":"2023-05-06T01:21:27.348192","EPHEMERIS_TYPE":"0","OBJECT_TYPE":"PAYLOAD","CLASSIFICATION_TYPE":"U","SITE":"AFETR","PERIOD":"95.593","RCS_SIZE":"LARGE","RA_OF_ASC_NODE":"14.2228","APOAPSIS":"548.101","DECAY_DATE":null,"BSTAR":"0.00155070000000","LAUNCH_DATE":"2021-01-20","SEMIMAJOR_AXIS":"6925.386","OBJECT_ID":"2021-005BB","MEAN_ANOMALY":"258.0135"},{"CLASSIFICATION_TYPE":"U","OBJECT_TYPE":"PAYLOAD","EPHEMERIS_TYPE":"0","EPOCH":"2023-05-06T03:48:47.853216","OBJECT_NAME":"STARLINK-2121","MEAN_ELEMENT_THEORY":"SGP4","MEAN_MOTION":"15.06392297","SITE":"AFETR","PERIOD":"95.593","DECAY_DATE":null,"APOAPSIS":"547.928","RCS_SIZE":"LARGE","RA_OF_ASC_NODE":"24.0090","MEAN_ANOMALY":"238.3794","OBJECT_ID":"2021-005BC","SEMIMAJOR_AXIS":"6925.372","LAUNCH_DATE":"2021-01-20","BSTAR":"0.00157000000000","REV_AT_EPOCH":"12678","REF_FRAME":"TEME","TIME_SYSTEM":"UTC","TLE_LINE1":"1 47399U 21005BC  23126.15888719  .00023176  00000-0  15700-2 0  9995","FILE":"3902298","MEAN_MOTION_DDOT":"0.0000000000000","ARG_OF_PERICENTER":"121.7292","PERIAPSIS":"546.547","TLE_LINE2":"2 47399  53.0547  24.0090 0000997 121.7292 238.3794 15.06392297126786","CENTER_NAME":"EARTH","ELEMENT_SET_NO":"999","GP_ID":"231348514","COUNTRY_CODE":"US","MEAN_MOTION_DOT":"0.00023176","INCLINATION":"53.0547","ECCENTRICITY":"0.00009970","NORAD_CAT_ID":"47399"},{"ARG_OF_PERICENTER":"94.9413","PERIAPSIS":"546.799","TLE_LINE2":"2 47400  53.0547   4.2460 0000600  94.9413 265.1644 15.06399635127053","CENTER_NAME":"EARTH","TLE_LINE1":"1 47400U 21005BD  23126.05381116  .00023442  00000-0  15874-2 0  9994","TIME_SYSTEM":"UTC","REF_FRAME":"TEME","REV_AT_EPOCH":"12705","MEAN_MOTION_DDOT":"0.0000000000000","FILE":"3902298","ECCENTRICITY":"0.00006000","NORAD_CAT_ID":"47400","INCLINATION":"53.0547","MEAN_MOTION_DOT":"0.00023442","ELEMENT_SET_NO":"999","COUNTRY_CODE":"US","GP_ID":"231349264","SITE":"AFETR","PERIOD":"95.592","EPHEMERIS_TYPE":"0","OBJECT_TYPE":"PAYLOAD","CLASSIFICATION_TYPE":"U","MEAN_ELEMENT_THEORY":"SGP4","MEAN_MOTION":"15.06399635","OBJECT_NAME":"STARLINK-2122","EPOCH":"2023-05-06T01:17:29.284224","OBJECT_ID":"2021-005BD","MEAN_ANOMALY":"265.1644","BSTAR":"0.00158740000000","LAUNCH_DATE":"2021-01-20","SEMIMAJOR_AXIS":"6925.350","RCS_SIZE":"LARGE","RA_OF_ASC_NODE":"4.2460","APOAPSIS":"547.630","DECAY_DATE":null},{"BSTAR":"0.00102520000000","LAUNCH_DATE":"2021-01-20","SEMIMAJOR_AXIS":"6925.412","OBJECT_ID":"2021-005BE","MEAN_ANOMALY":"243.4344","RCS_SIZE":"LARGE","RA_OF_ASC_NODE":"14.1538","APOAPSIS":"547.948","DECAY_DATE":null,"PERIOD":"95.593","SITE":"AFETR","OBJECT_NAME":"STARLINK-2123","MEAN_ELEMENT_THEORY":"SGP4","MEAN_MOTION":"15.06379400","EPOCH":"2023-05-06T01:42:41.317920","EPHEMERIS_TYPE":"0","OBJECT_TYPE":"PAYLOAD","CLASSIFICATION_TYPE":"U","NORAD_CAT_ID":"47401","ECCENTRICITY":"0.00009690","INCLINATION":"53.0547","MEAN_MOTION_DOT":"0.00015013","COUNTRY_CODE":"US","GP_ID":"231349507","ELEMENT_SET_NO":"999","CENTER_NAME":"EARTH","TLE_LINE2":"2 47401  53.0547  14.1538 0000969 116.6744 243.4344 15.06379400126926","ARG_OF_PERICENTER":"116.6744","PERIAPSIS":"546.606","MEAN_MOTION_DDOT":"0.0000000000000","FILE":"3902298","TLE_LINE1":"1 47401U 21005BE  23126.07131155  .00015013  00000-0  10252-2 0  9993","TIME_SYSTEM":"UTC","REF_FRAME":"TEME","REV_AT_EPOCH":"12692"},{"MEAN_MOTION_DOT":"0.00034122","INCLINATION":"53.0550","ECCENTRICITY":"0.00012410","NORAD_CAT_ID":"47402","GP_ID":"231347764","COUNTRY_CODE":"US","ELEMENT_SET_NO":"999","CENTER_NAME":"EARTH","TLE_LINE2":"2 47402  53.0550  13.4789 0001241 104.2425 255.8702 15.06401363126945","PERIAPSIS":"546.350","ARG_OF_PERICENTER":"104.2425","FILE":"3902298","MEAN_MOTION_DDOT":"0.0000000000000","REV_AT_EPOCH":"12694","REF_FRAME":"TEME","TIME_SYSTEM":"UTC","TLE_LINE1":"1 47402U 21005BF  23126.22243943  .00034122  00000-0  22985-2 0  9998","LAUNCH_DATE":"2021-01-20","SEMIMAJOR_AXIS":"6925.344","BSTAR":"0.00229850000000","MEAN_ANOMALY":"255.8702","OBJECT_ID":"2021-005BF","DECAY_DATE":null,"APOAPSIS":"548.069","RA_OF_ASC_NODE":"13.4789","RCS_SIZE":"LARGE","SITE":"AFETR","PERIOD":"95.592","EPOCH":"2023-05-06T05:20:18.766752","OBJECT_NAME":"STARLINK-2124","MEAN_ELEMENT_THEORY":"SGP4","MEAN_MOTION":"15.06401363","CLASSIFICATION_TYPE":"U","OBJECT_TYPE":"PAYLOAD","EPHEMERIS_TYPE":"0"}];
